[{"OBJECT_NAME":"STARLINK-31938","OBJECT_ID":"2024-098H","EPOCH":"2026-03-14T19:36:58.080096","MEAN_MOTION":15.27593898,"ECCENTRICITY":0.00018031,"INCLINATION":42.9997,"RA_OF_ASC_NODE":248.7477,"ARG_OF_PERICENTER":259.3919,"MEAN_ANOMALY":100.673,"EPHEMERIS_TYPE":0,"CLASSIFICATION_TYPE":"U","NORAD_CAT_ID":59865,"ELEMENT_SET_NO":999,"REV_AT_EPOCH":10263,"BSTAR":0.00019639938,"MEAN_MOTION_DOT":5.148e-5,"MEAN_MOTION_DDOT":0},{"OBJECT_NAME":"STARLINK-31941","OBJECT_ID":"2024-098J","EPOCH":"2026-03-14T19:58:51.659904","MEAN_MOTION":15.27599614,"ECCENTRICITY":0.00015761,"INCLINATION":43.0026,"RA_OF_ASC_NODE":231.2044,"ARG_OF_PERICENTER":263.9399,"MEAN_ANOMALY":96.1273,"EPHEMERIS_TYPE":0,"CLASSIFICATION_TYPE":"U","NORAD_CAT_ID":59866,"ELEMENT_SET_NO":999,"REV_AT_EPOCH":10283,"BSTAR":-1.0342554e-5,"MEAN_MOTION_DOT":-5.47e-6,"MEAN_MOTION_DDOT":0},{"OBJECT_NAME":"STARLINK-31952","OBJECT_ID":"2024-098K","EPOCH":"2026-03-14T18:49:05.386368","MEAN_MOTION":15.27580642,"ECCENTRICITY":0.00020129,"INCLINATION":43.0024,"RA_OF_ASC_NODE":249.365,"ARG_OF_PERICENTER":279.6326,"MEAN_ANOMALY":80.4298,"EPHEMERIS_TYPE":0,"CLASSIFICATION_TYPE":"U","NORAD_CAT_ID":59867,"ELEMENT_SET_NO":999,"REV_AT_EPOCH":10262,"BSTAR":0.00012088341,"MEAN_MOTION_DOT":3.066e-5,"MEAN_MOTION_DDOT":0},{"OBJECT_NAME":"STARLINK-31921","OBJECT_ID":"2024-098L","EPOCH":"2026-03-15T01:34:55.526016","MEAN_MOTION":15.27564772,"ECCENTRICITY":0.00015348,"INCLINATION":43.0018,"RA_OF_ASC_NODE":207.2737,"ARG_OF_PERICENTER":277.6631,"MEAN_ANOMALY":82.4046,"EPHEMERIS_TYPE":0,"CLASSIFICATION_TYPE":"U","NORAD_CAT_ID":59868,"ELEMENT_SET_NO":999,"REV_AT_EPOCH":10312,"BSTAR":-5.4582462e-5,"MEAN_MOTION_DOT":-1.763e-5,"MEAN_MOTION_DDOT":0},{"OBJECT_NAME":"STARLINK-31760","OBJECT_ID":"2024-098M","EPOCH":"2026-03-15T04:28:50.004768","MEAN_MOTION":15.27571095,"ECCENTRICITY":8.93e-5,"INCLINATION":43.0025,"RA_OF_ASC_NODE":247.2258,"ARG_OF_PERICENTER":283.2117,"MEAN_ANOMALY":76.8635,"EPHEMERIS_TYPE":0,"CLASSIFICATION_TYPE":"U","NORAD_CAT_ID":59869,"ELEMENT_SET_NO":999,"REV_AT_EPOCH":10268,"BSTAR":-2.2259815e-5,"MEAN_MOTION_DOT":-8.74e-6,"MEAN_MOTION_DDOT":0},{"OBJECT_NAME":"STARLINK-31945","OBJECT_ID":"2024-098N","EPOCH":"2026-03-15T04:27:27.374400","MEAN_MOTION":15.27574572,"ECCENTRICITY":0.00018847,"INCLINATION":42.9997,"RA_OF_ASC_NODE":242.8951,"ARG_OF_PERICENTER":265.0203,"MEAN_ANOMALY":95.0434,"EPHEMERIS_TYPE":0,"CLASSIFICATION_TYPE":"U","NORAD_CAT_ID":59870,"ELEMENT_SET_NO":999,"REV_AT_EPOCH":10273,"BSTAR":4.6113208e-5,"MEAN_MOTION_DOT":1.007e-5,"MEAN_MOTION_DDOT":0},{"OBJECT_NAME":"STARLINK-31937","OBJECT_ID":"2024-098P","EPOCH":"2026-03-15T03:55:04.672992","MEAN_MOTION":15.27573177,"ECCENTRICITY":0.00013263,"INCLINATION":42.9955,"RA_OF_ASC_NODE":240.1296,"ARG_OF_PERICENTER":46.247,"MEAN_ANOMALY":313.8491,"EPHEMERIS_TYPE":0,"CLASSIFICATION_TYPE":"U","NORAD_CAT_ID":59871,"ELEMENT_SET_NO":999,"REV_AT_EPOCH":10276,"BSTAR":-2.9395892e-5,"MEAN_MOTION_DOT":-1.071e-5,"MEAN_MOTION_DDOT":0},{"OBJECT_NAME":"STARLINK-31940","OBJECT_ID":"2024-098R","EPOCH":"2026-03-15T04:17:02.403456","MEAN_MOTION":15.27582331,"ECCENTRICITY":0.00010092,"INCLINATION":42.9997,"RA_OF_ASC_NODE":239.3801,"ARG_OF_PERICENTER":247.3095,"MEAN_ANOMALY":112.765,"EPHEMERIS_TYPE":0,"CLASSIFICATION_TYPE":"U","NORAD_CAT_ID":59873,"ELEMENT_SET_NO":999,"REV_AT_EPOCH":10277,"BSTAR":5.5682647e-5,"MEAN_MOTION_DOT":1.271e-5,"MEAN_MOTION_DDOT":0},{"OBJECT_NAME":"STARLINK-31933","OBJECT_ID":"2024-098S","EPOCH":"2026-03-15T03:51:49.709664","MEAN_MOTION":15.27576299,"ECCENTRICITY":0.00012868,"INCLINATION":43.0006,"RA_OF_ASC_NODE":247.035,"ARG_OF_PERICENTER":281.8703,"MEAN_ANOMALY":78.2005,"EPHEMERIS_TYPE":0,"CLASSIFICATION_TYPE":"U","NORAD_CAT_ID":59874,"ELEMENT_SET_NO":999,"REV_AT_EPOCH":10268,"BSTAR":4.4404924e-5,"MEAN_MOTION_DOT":9.6e-6,"MEAN_MOTION_DDOT":0},{"OBJECT_NAME":"STARLINK-31936","OBJECT_ID":"2024-098T","EPOCH":"2026-03-15T02:18:05.937120","MEAN_MOTION":15.27579369,"ECCENTRICITY":0.00011412,"INCLINATION":43.0016,"RA_OF_ASC_NODE":215.1293,"ARG_OF_PERICENTER":273.939,"MEAN_ANOMALY":86.1331,"EPHEMERIS_TYPE":0,"CLASSIFICATION_TYPE":"U","NORAD_CAT_ID":59875,"ELEMENT_SET_NO":999,"REV_AT_EPOCH":10303,"BSTAR":2.757486e-5,"MEAN_MOTION_DOT":4.97e-6,"MEAN_MOTION_DDOT":0},{"OBJECT_NAME":"STARLINK-31935","OBJECT_ID":"2024-098U","EPOCH":"2026-03-15T04:23:15.646272","MEAN_MOTION":15.27586982,"ECCENTRICITY":0.00020526,"INCLINATION":43.0001,"RA_OF_ASC_NODE":247.195,"ARG_OF_PERICENTER":284.5143,"MEAN_ANOMALY":75.5481,"EPHEMERIS_TYPE":0,"CLASSIFICATION_TYPE":"U","NORAD_CAT_ID":59876,"ELEMENT_SET_NO":999,"REV_AT_EPOCH":10268,"BSTAR":3.1646272e-5,"MEAN_MOTION_DOT":6.09e-6,"MEAN_MOTION_DDOT":0},{"OBJECT_NAME":"STARLINK-31934","OBJECT_ID":"2024-098V","EPOCH":"2026-03-14T11:48:44.428896","MEAN_MOTION":15.27580651,"ECCENTRICITY":0.00013954,"INCLINATION":42.9997,"RA_OF_ASC_NODE":247.1477,"ARG_OF_PERICENTER":258.9202,"MEAN_ANOMALY":101.1493,"EPHEMERIS_TYPE":0,"CLASSIFICATION_TYPE":"U","NORAD_CAT_ID":59877,"ELEMENT_SET_NO":999,"REV_AT_EPOCH":10262,"BSTAR":3.8363532e-5,"MEAN_MOTION_DOT":7.94e-6,"MEAN_MOTION_DDOT":0},{"OBJECT_NAME":"STARLINK-31943","OBJECT_ID":"2024-098W","EPOCH":"2026-03-15T04:51:14.363712","MEAN_MOTION":15.29019142,"ECCENTRICITY":0.00037557,"INCLINATION":42.9999,"RA_OF_ASC_NODE":250.8056,"ARG_OF_PERICENTER":304.1275,"MEAN_ANOMALY":55.9221,"EPHEMERIS_TYPE":0,"CLASSIFICATION_TYPE":"U","NORAD_CAT_ID":59878,"ELEMENT_SET_NO":999,"REV_AT_EPOCH":10199,"BSTAR":0.0032715672,"MEAN_MOTION_DOT":0.00095046,"MEAN_MOTION_DDOT":0},{"OBJECT_NAME":"STARLINK-31926","OBJECT_ID":"2024-098X","EPOCH":"2026-03-13T13:15:19.002528","MEAN_MOTION":15.27915277,"ECCENTRICITY":0.00018468,"INCLINATION":42.9991,"RA_OF_ASC_NODE":245.6644,"ARG_OF_PERICENTER":270.4806,"MEAN_ANOMALY":89.5834,"EPHEMERIS_TYPE":0,"CLASSIFICATION_TYPE":"U","NORAD_CAT_ID":59879,"ELEMENT_SET_NO":999,"REV_AT_EPOCH":10255,"BSTAR":0.00067798258,"MEAN_MOTION_DOT":0.00018633,"MEAN_MOTION_DDOT":0},{"OBJECT_NAME":"STARLINK-31919","OBJECT_ID":"2024-098Y","EPOCH":"2026-03-15T04:02:54.695040","MEAN_MOTION":15.27580384,"ECCENTRICITY":0.0001162,"INCLINATION":42.999,"RA_OF_ASC_NODE":247.089,"ARG_OF_PERICENTER":276.0347,"MEAN_ANOMALY":84.0373,"EPHEMERIS_TYPE":0,"CLASSIFICATION_TYPE":"U","NORAD_CAT_ID":59880,"ELEMENT_SET_NO":999,"REV_AT_EPOCH":10268,"BSTAR":1.8297408e-5,"MEAN_MOTION_DOT":2.42e-6,"MEAN_MOTION_DDOT":0},{"OBJECT_NAME":"STARLINK-31974","OBJECT_ID":"2024-100A","EPOCH":"2026-03-14T18:26:38.036256","MEAN_MOTION":15.27589845,"ECCENTRICITY":0.00010993,"INCLINATION":43.0038,"RA_OF_ASC_NODE":96.7169,"ARG_OF_PERICENTER":278.4705,"MEAN_ANOMALY":81.6022,"EPHEMERIS_TYPE":0,"CLASSIFICATION_TYPE":"U","NORAD_CAT_ID":59885,"ELEMENT_SET_NO":999,"REV_AT_EPOCH":10183,"BSTAR":7.8860796e-5,"MEAN_MOTION_DOT":1.909e-5,"MEAN_MOTION_DDOT":0}]
