STARLINK-31938          
1 59865U 24098H   26073.81733889  .00005148  00000+0  19640-3 0  9991
2 59865  42.9997 248.7477 0001803 259.3919 100.6730 15.27593898102630
STARLINK-31941          
1 59866U 24098J   26073.83254236 -.00000547  00000+0 -10343-4 0  9990
2 59866  43.0026 231.2044 0001576 263.9399  96.1273 15.27599614102838
STARLINK-31952          
1 59867U 24098K   26073.78409012  .00003066  00000+0  12088-3 0  9993
2 59867  43.0024 249.3650 0002012 279.6326  80.4298 15.27580642102621
STARLINK-31921          
1 59868U 24098L   26074.06592044 -.00001763  00000+0 -54582-4 0  9994
2 59868  43.0018 207.2737 0001534 277.6631  82.4046 15.27564772103124
STARLINK-31760          
1 59869U 24098M   26074.18668987 -.00000874  00000+0 -22260-4 0  9998
2 59869  43.0025 247.2258 0000893 283.2117  76.8635 15.27571095102681
STARLINK-31945          
1 59870U 24098N   26074.18573350  .00001007  00000+0  46113-4 0  9999
2 59870  42.9997 242.8951 0001884 265.0203  95.0434 15.27574572102734
STARLINK-31937          
1 59871U 24098P   26074.16324853 -.00001071  00000+0 -29396-4 0  9997
2 59871  42.9955 240.1296 0001326  46.2470 313.8491 15.27573177102765
STARLINK-31940          
1 59873U 24098R   26074.17850004  .00001271  00000+0  55683-4 0  9990
2 59873  42.9997 239.3801 0001009 247.3095 112.7650 15.27582331102776
STARLINK-31933          
1 59874U 24098S   26074.16099201  .00000960  00000+0  44405-4 0  9998
2 59874  43.0006 247.0350 0001286 281.8703  78.2005 15.27576299102687
STARLINK-31936          
1 59875U 24098T   26074.09590205  .00000497  00000+0  27575-4 0  9995
2 59875  43.0016 215.1293 0001141 273.9390  86.1331 15.27579369103036
STARLINK-31935          
1 59876U 24098U   26074.18281998  .00000609  00000+0  31646-4 0  9991
2 59876  43.0001 247.1950 0002052 284.5143  75.5481 15.27586982102689
STARLINK-31934          
1 59877U 24098V   26073.49218089  .00000794  00000+0  38364-4 0  9995
2 59877  42.9997 247.1477 0001395 258.9202 101.1493 15.27580651102626
STARLINK-31943          
1 59878U 24098W   26074.20224958  .00095046  00000+0  32716-2 0  9995
2 59878  42.9999 250.8056 0003755 304.1275  55.9221 15.29019142101997
STARLINK-31926          
1 59879U 24098X   26072.55230327  .00018633  00000+0  67798-3 0  9995
2 59879  42.9991 245.6644 0001846 270.4806  89.5834 15.27915277102557
STARLINK-31919          
1 59880U 24098Y   26074.16868860  .00000242  00000+0  18297-4 0  9993
2 59880  42.9990 247.0890 0001162 276.0347  84.0373 15.27580384102689
STARLINK-31974          
1 59885U 24100A   26073.76849579  .00001909  00000+0  78861-4 0  9997
2 59885  43.0038  96.7169 0001099 278.4705  81.6022 15.27589845101831
